[{"OBJECT_NAME":"KUIPER-00137","OBJECT_ID":"2025-228S","EPOCH":"2026-03-09T22:00:01.999584","MEAN_MOTION":14.78448948,"ECCENTRICITY":0.00017475,"INCLINATION":51.9044,"RA_OF_ASC_NODE":344.5648,"ARG_OF_PERICENTER":152.1073,"MEAN_ANOMALY":242.2792,"EPHEMERIS_TYPE":0,"CLASSIFICATION_TYPE":"U","NORAD_CAT_ID":65963,"ELEMENT_SET_NO":999,"REV_AT_EPOCH":474,"BSTAR":-0.0032569559,"MEAN_MOTION_DOT":-0.00024103,"MEAN_MOTION_DDOT":0},{"OBJECT_NAME":"CZ-6A DEB","OBJECT_ID":"2022-151ADL","EPOCH":"2026-03-09T17:28:13.716192","MEAN_MOTION":14.75641631,"ECCENTRICITY":0.00643507,"INCLINATION":98.632,"RA_OF_ASC_NODE":141.8297,"ARG_OF_PERICENTER":118.8328,"MEAN_ANOMALY":241.936,"EPHEMERIS_TYPE":0,"CLASSIFICATION_TYPE":"U","NORAD_CAT_ID":56588,"ELEMENT_SET_NO":999,"REV_AT_EPOCH":16282,"BSTAR":0.0023477028,"MEAN_MOTION_DOT":0.00016555,"MEAN_MOTION_DDOT":0}]
